NORAD_CAT_ID,OBJECT_NAME,OBJECT_TYPE,EPOCH,MEAN_MOTION,ECCENTRICITY,INCLINATION,RA_OF_ASC_NODE,ARG_OF_PERICENTER,MEAN_ANOMALY,BSTAR,MEAN_MOTION_DOT,MEAN_MOTION_DDOT,TLE_LINE0,TLE_LINE1,TLE_LINE2,SEMIMAJOR_AXIS,PERIOD,APOGEE,PERIGEE,DECAYED
50178.0,STARLINK-3284,PAYLOAD,2023-02-04 23:51:20,15.08849729,0.000119,53.2158,276.0283,84.915,275.1978,0.00021423,3.124e-05,0.0,0 STARLINK-3284,1 50178U 21125Y   23035.99398200  .00003124  00000-0  21423-3 0  9990,2 50178  53.2158 276.0283 0001190  84.9150 275.1978 15.08849729 66243,6917.851,95.437,540.539,538.892,0.0
50178.0,STARLINK-3284,PAYLOAD,2023-02-05 18:55:58,15.08837165,0.0001049,53.2153,272.4604,81.4376,278.6735,6.4529e-05,7.39e-06,0.0,0 STARLINK-3284,1 50178U 21125Y   23036.78886882  .00000739  00000-0  64529-4 0  9990,2 50178  53.2153 272.4604 0001049  81.4376 278.6735 15.08837165 65834,6917.889,95.438,540.48,539.028,0.0
50178.0,STARLINK-3284,PAYLOAD,2023-02-05 22:06:44,15.0883901,0.0001194,53.2157,271.8654,87.8951,272.2178,8.8518e-05,1.121e-05,0.0,0 STARLINK-3284,1 50178U 21125Y   23036.92134856  .00001121  00000-0  88518-4 0  9993,2 50178  53.2157 271.8654 0001194  87.8951 272.2178 15.08839010 66389,6917.883,95.438,540.574,538.922,0.0
50178.0,STARLINK-3284,PAYLOAD,2023-02-06 10:49:49,15.08839927,0.0001123,53.2154,269.486,96.206,263.906,0.00011727,1.579e-05,0.0,0 STARLINK-3284,1 50178U 21125Y   23037.45126876  .00001579  00000-0  11727-3 0  9999,2 50178  53.2154 269.4860 0001123  96.2060 263.9060 15.08839927 66468,6917.881,95.438,540.522,538.969,0.0
50178.0,STARLINK-3284,PAYLOAD,2023-02-06 18:46:45,15.08844973,0.0001126,53.2155,267.9993,97.018,263.094,0.00017956,2.571e-05,0.0,0 STARLINK-3284,1 50178U 21125Y   23037.78246703  .00002571  00000-0  17956-3 0  9990,2 50178  53.2155 267.9993 0001126  97.0180 263.0940 15.08844973 66515,6917.865,95.437,540.509,538.951,0.0
50178.0,STARLINK-3284,PAYLOAD,2023-02-06 21:57:31,15.08847758,0.0001114,53.2154,267.405,89.8064,270.3056,0.00024351,3.591e-05,0.0,0 STARLINK-3284,1 50178U 21125Y   23037.91494628  .00003591  00000-0  24351-3 0  9996,2 50178  53.2154 267.4050 0001114  89.8064 270.3056 15.08847758 66007,6917.857,95.437,540.492,538.951,0.0
50178.0,STARLINK-3284,PAYLOAD,2023-02-07 02:43:40,15.0885741,0.0001094,53.2153,266.5128,86.219,273.8927,0.00042982,6.563e-05,0.0,0 STARLINK-3284,1 50178U 21125Y   23038.11366239  .00006563  00000-0  42982-3 0  9997,2 50178  53.2153 266.5128 0001094  86.2190 273.8927 15.08857410 66034,6917.827,95.436,540.449,538.935,0.0
50178.0,STARLINK-3284,PAYLOAD,2023-02-07 21:48:18,15.08850542,0.000107,53.2153,262.9438,100.1606,259.9507,0.00037031,5.612e-05,0.0,0 STARLINK-3284,1 50178U 21125Y   23038.90854587  .00005612  00000-0  37031-3 0  9995,2 50178  53.2153 262.9438 0001070 100.1606 259.9507 15.08850542 66151,6917.848,95.437,540.453,538.973,0.0
50178.0,STARLINK-3284,PAYLOAD,2023-02-08 00:59:04,15.08857178,0.0001065,53.2154,262.3489,97.7281,262.3832,0.00063116,9.776e-05,0.0,0 STARLINK-3284,1 50178U 21125Y   23039.04102469  .00009776  00000-0  63116-3 0  9994,2 50178  53.2154 262.3489 0001065  97.7281 262.3832 15.08857178 66708,6917.828,95.436,540.43,538.956,0.0
50178.0,STARLINK-3284,PAYLOAD,2023-02-08 13:42:09,15.08841818,0.0001177,53.2155,259.9691,116.4125,243.6988,0.00059714,9.229e-05,0.0,0 STARLINK-3284,1 50178U 21125Y   23039.57094865  .00009229  00000-0  59714-3 0  9994,2 50178  53.2155 259.9691 0001177 116.4125 243.6988 15.08841818 66254,6917.875,95.437,540.554,538.926,0.0
50178.0,STARLINK-3284,PAYLOAD,2023-02-08 21:39:05,15.08844114,0.00012,53.2156,258.4827,114.3304,245.7813,0.00067091,0.00010407,0.0,0 STARLINK-3284,1 50178U 21125Y   23039.90214955  .00010407  00000-0  67091-3 0  9992,2 50178  53.2156 258.4827 0001200 114.3304 245.7813 15.08844114 66839,6917.868,95.437,540.563,538.903,0.0
50178.0,STARLINK-3284,PAYLOAD,2023-02-09 00:49:51,15.08845254,0.0001173,53.2156,257.888,113.8462,246.2653,0.00060729,9.392e-05,0.0,0 STARLINK-3284,1 50178U 21125Y   23040.03462932  .00009392  00000-0  60729-3 0  9990,2 50178  53.2156 257.8880 0001173 113.8462 246.2653 15.08845254 66855,6917.864,95.437,540.541,538.918,0.0
50178.0,STARLINK-3284,PAYLOAD,2023-02-09 19:54:29,15.08840404,0.0001094,53.2148,254.3183,115.0161,245.0945,0.00014158,1.966e-05,0.0,0 STARLINK-3284,1 50178U 21125Y   23040.82951156  .00001966  00000-0  14158-3 0  9992,2 50178  53.2148 254.3183 0001094 115.0161 245.0945 15.08840404 66444,6917.879,95.438,540.501,538.987,0.0
50178.0,STARLINK-3284,PAYLOAD,2023-02-10 00:40:39,15.0884541,0.0001131,53.2147,253.4259,114.9002,245.2107,0.00028886,4.313e-05,0.0,0 STARLINK-3284,1 50178U 21125Y   23041.02823036  .00004313  00000-0  28886-3 0  9992,2 50178  53.2147 253.4259 0001131 114.9002 245.2107 15.08845410 67008,6917.864,95.437,540.511,538.946,0.0
50178.0,STARLINK-3284,PAYLOAD,2023-02-10 16:34:30,15.08837755,0.0001191,53.2158,250.45,101.4377,258.6749,0.00047935,7.349e-05,0.0,0 STARLINK-3284,1 50178U 21125Y   23041.69063597  .00007349  00000-0  47935-3 0  9991,2 50178  53.2158 250.4500 0001191 101.4377 258.6749 15.08837755 66572,6917.887,95.438,540.576,538.928,0.0
50178.0,STARLINK-3284,PAYLOAD,2023-02-11 13:14:31,15.08834232,0.0001241,53.2153,246.589,78.5207,281.5925,-4.4861e-05,-1.002e-05,0.0,0 STARLINK-3284,1 50178U 21125Y   23042.55175717 -.00001002  00000-0 -44861-4 0  9993,2 50178  53.2153 246.5890 0001241  78.5207 281.5925 15.08834232 66700,6917.898,95.438,540.622,538.905,0.0
50178.0,STARLINK-3284,PAYLOAD,2023-02-11 19:36:04,15.08836579,0.0001204,53.2154,245.3985,87.1891,272.9239,1.6033e-05,-3.3e-07,0.0,0 STARLINK-3284,1 50178U 21125Y   23042.81671809 -.00000033  00000-0  16033-4 0  9997,2 50178  53.2154 245.3985 0001204  87.1891 272.9239 15.08836579 67278,6917.891,95.438,540.589,538.923,0.0
50178.0,STARLINK-3284,PAYLOAD,2023-02-12 13:05:19,15.08839343,0.0001256,53.2154,242.1277,81.212,278.9014,2.9787e-05,1.86e-06,0.0,0 STARLINK-3284,1 50178U 21125Y   23043.54535994  .00000186  00000-0  29787-4 0  9990,2 50178  53.2154 242.1277 0001256  81.2120 278.9014 15.08839343 67385,6917.882,95.438,540.616,538.879,0.0
50178.0,STARLINK-3284,PAYLOAD,2023-02-12 14:40:42,15.08840278,0.000124,53.2154,241.8303,82.6718,277.4415,6.6846e-05,7.76e-06,0.0,0 STARLINK-3284,1 50178U 21125Y   23043.61159961  .00000776  00000-0  66846-4 0  9996,2 50178  53.2154 241.8303 0001240  82.6718 277.4415 15.08840278 66862,6917.88,95.438,540.602,538.887,0.0
50178.0,STARLINK-3284,PAYLOAD,2023-02-13 12:56:06,15.08839223,0.0001371,53.2151,237.6665,84.8258,275.289,0.00042552,6.491e-05,0.0,0 STARLINK-3284,1 50178U 21125Y   23044.53896309  .00006491  00000-0  42552-3 0  9999,2 50178  53.2151 237.6665 0001371  84.8258 275.2890 15.08839223 67537,6917.883,95.438,540.696,538.799,0.0
50178.0,STARLINK-3284,PAYLOAD,2023-02-13 19:17:38,15.08849547,0.0001359,53.2153,236.4774,87.1627,272.952,0.0003794,5.757e-05,0.0,0 STARLINK-3284,1 50178U 21125Y   23044.80391789  .00005757  00000-0  37940-3 0  9990,2 50178  53.2153 236.4774 0001359  87.1627 272.9520 15.08849547 67049,6917.851,95.437,540.656,538.776,0.0
50178.0,STARLINK-3284,PAYLOAD,2023-02-14 09:36:06,15.08843296,0.000126,53.2154,233.8017,80.9503,279.1632,0.00014605,2.037e-05,0.0,0 STARLINK-3284,1 50178U 21125Y   23045.40007855  .00002037  00000-0  14605-3 0  9996,2 50178  53.2154 233.8017 0001260  80.9503 279.1632 15.08843296 67134,6917.87,95.437,540.607,538.864,0.0
50178.0,STARLINK-3284,PAYLOAD,2023-02-14 12:46:53,15.08841569,0.0001223,53.2156,233.2073,80.1426,279.9704,0.00013439,1.852e-05,0.0,0 STARLINK-3284,1 50178U 21125Y   23045.53255959  .00001852  00000-0  13439-3 0  9998,2 50178  53.2156 233.2073 0001223  80.1426 279.9704 15.08841569 67686,6917.876,95.437,540.587,538.895,0.0
50178.0,STARLINK-3284,PAYLOAD,2023-02-14 19:08:25,15.08845425,0.0001226,53.2153,232.017,84.3935,275.7197,0.00016133,2.281e-05,0.0,0 STARLINK-3284,1 50178U 21125Y   23045.79751640  .00002281  00000-0  16133-3 0  9995,2 50178  53.2153 232.0170 0001226  84.3935 275.7197 15.08845425 67722,6917.864,95.437,540.577,538.881,0.0
50178.0,STARLINK-3284,PAYLOAD,2023-02-15 12:37:39,15.08842351,0.0001174,53.2153,228.7463,85.5829,274.5297,5.7525e-05,6.28e-06,0.0,0 STARLINK-3284,1 50178U 21125Y   23046.52615660  .00000628  00000-0  57525-4 0  9992,2 50178  53.2153 228.7463 0001174  85.5829 274.5297 15.08842351 67303,6917.873,95.437,540.55,538.926,0.0
50178.0,STARLINK-3284,PAYLOAD,2023-02-15 15:48:26,15.08843559,0.0001199,53.2151,228.151,85.6179,274.495,7.5103e-05,9.08e-06,0.0,0 STARLINK-3284,1 50178U 21125Y   23046.65863564  .00000908  00000-0  75103-4 0  9997,2 50178  53.2151 228.1510 0001199  85.6179 274.4950 15.08843559 67850,6917.87,95.437,540.564,538.905,0.0
50178.0,STARLINK-3284,PAYLOAD,2023-02-16 12:28:26,15.0884087,0.0001134,53.215,224.2846,82.6174,277.4947,0.00010242,1.343e-05,0.0,0 STARLINK-3284,1 50178U 21125Y   23047.51975606  .00001343  00000-0  10242-3 0  9990,2 50178  53.2150 224.2846 0001134  82.6174 277.4947 15.08840870 67985,6917.878,95.437,540.527,538.958,0.0
50178.0,STARLINK-3284,PAYLOAD,2023-02-16 20:25:22,15.08842847,0.0001133,53.2151,222.7977,80.6182,279.4938,0.00010578,1.396e-05,0.0,0 STARLINK-3284,1 50178U 21125Y   23047.85095455  .00001396  00000-0  10578-3 0  9992,2 50178  53.2151 222.7977 0001133  80.6182 279.4938 15.08842847 67506,6917.872,95.437,540.52,538.953,0.0
50178.0,STARLINK-3284,PAYLOAD,2023-02-17 05:57:41,15.0883445,0.0001007,53.2164,221.0163,79.0728,281.0377,-2.4016e-05,-6.7e-06,0.0,0 STARLINK-3284,1 50178U 21125Y   23048.24839987 -.00000670  00000-0 -24016-4 0  9991,2 50178  53.2164 221.0163 0001007  79.0728 281.0377 15.08834450 67560,6917.897,95.438,540.459,539.066,0.0
50178.0,STARLINK-3284,PAYLOAD,2023-02-17 12:19:14,15.0882985,0.000109,53.2168,219.8252,91.0176,269.0941,4.4732e-06,-2.17e-06,0.0,0 STARLINK-3284,1 50178U 21125Y   23048.51336685 -.00000217  00000-0  44732-5 0  9992,2 50178  53.2168 219.8252 0001090  91.0176 269.0941 15.08829850 67607,6917.911,95.438,540.53,539.022,0.0
